STARLINK-1422           
1 45696U 20035AR  26068.31765243  .00006353  00000+0  22631-3 0  9996
2 45696  53.1601  51.3097 0001248  97.1676 262.9467 15.30216632318911
2025-313BC              
1 67298U 25313BC  26068.18968176  .00075331  00000+0  26410-2 0  9997
2 67298  97.3985 144.8110 0008478 328.9209  31.1528 15.29126358  7890
